[{"OBJECT_NAME":"METEOR-M2 2","OBJECT_ID":"2019-038A","EPOCH":"2026-03-09T21:58:24.397824","MEAN_MOTION":14.24334247,"ECCENTRICITY":8.489e-5,"INCLINATION":98.9094,"RA_OF_ASC_NODE":54.7702,"ARG_OF_PERICENTER":2.4629,"MEAN_ANOMALY":357.6553,"EPHEMERIS_TYPE":0,"CLASSIFICATION_TYPE":"U","NORAD_CAT_ID":44387,"ELEMENT_SET_NO":999,"REV_AT_EPOCH":34716,"BSTAR":6.6455794e-5,"MEAN_MOTION_DOT":1.08e-6,"MEAN_MOTION_DDOT":0},{"OBJECT_NAME":"DMSP 5D-2 F13 DEB","OBJECT_ID":"1995-015BN","EPOCH":"2026-03-08T22:19:17.418144","MEAN_MOTION":14.22705872,"ECCENTRICITY":0.00449469,"INCLINATION":98.9957,"RA_OF_ASC_NODE":66.2875,"ARG_OF_PERICENTER":15.9237,"MEAN_ANOMALY":344.3341,"EPHEMERIS_TYPE":0,"CLASSIFICATION_TYPE":"U","NORAD_CAT_ID":40470,"ELEMENT_SET_NO":999,"REV_AT_EPOCH":56565,"BSTAR":0.0023552263,"MEAN_MOTION_DOT":5.287e-5,"MEAN_MOTION_DDOT":0}]
